[{"OBJECT_NAME":"GEOSCAN 6 (RS92S6)","OBJECT_ID":"2025-155D","EPOCH":"2026-03-09T21:52:39.201312","MEAN_MOTION":15.27985277,"ECCENTRICITY":0.00087677,"INCLINATION":97.4466,"RA_OF_ASC_NODE":37.2933,"ARG_OF_PERICENTER":153.7679,"MEAN_ANOMALY":206.4006,"EPHEMERIS_TYPE":0,"CLASSIFICATION_TYPE":"U","NORAD_CAT_ID":64879,"ELEMENT_SET_NO":999,"REV_AT_EPOCH":6559,"BSTAR":0.00053762354,"MEAN_MOTION_DOT":0.00014633,"MEAN_MOTION_DDOT":0},{"OBJECT_NAME":"STARLINK-35139","OBJECT_ID":"2025-257A","EPOCH":"2026-03-09T16:19:16.027968","MEAN_MOTION":15.30203031,"ECCENTRICITY":0.00010818,"INCLINATION":53.1592,"RA_OF_ASC_NODE":216.9569,"ARG_OF_PERICENTER":70.9762,"MEAN_ANOMALY":289.1356,"EPHEMERIS_TYPE":0,"CLASSIFICATION_TYPE":"U","NORAD_CAT_ID":66380,"ELEMENT_SET_NO":999,"REV_AT_EPOCH":1967,"BSTAR":0.00089027174,"MEAN_MOTION_DOT":0.00026103,"MEAN_MOTION_DDOT":0}]
